ONEWEB-0033             
1 45142U 20008M   25091.63014393  .00000178  00000+0  47493-3 0  9997
2 45142  87.8804 124.3263 0001790  91.3883 268.7449 13.10369259250380
ONEWEB-0035             
1 45143U 20008N   25091.81354604 -.00000604  00000+0 -17664-2 0  9992
2 45143  87.8817 124.2863 0001870  92.9067 267.2275 13.10372897251025
ONEWEB-0036             
1 45144U 20008P   25092.10904812 -.00005253  00000+0 -15087-1 0  9999
2 45144  87.8807 124.1727 0002084 100.5374 259.5988 13.10397054251463
ONEWEB-0038             
1 45145U 20008Q   25091.78005413 -.00000063  00000+0 -21378-3 0  9998
2 45145  87.8797 109.0474 0002573  82.9326 277.2095 13.11418971252477
ONEWEB-0039             
1 45146U 20008R   25092.09159956  .00000145  00000+0  37914-3 0  9998
2 45146  87.8808 124.1981 0002595  94.9222 265.2202 13.10371493251173
ONEWEB-0040             
1 45147U 20008S   25091.77954242  .00000403  00000+0  11186-2 0  9993
2 45147  87.8816 124.2805 0002045  94.5963 265.5398 13.10370192250057
ONEWEB-0043             
1 45149U 20008U   25091.62848667  .00000268  00000+0  73037-3 0  9995
2 45149  87.8808 124.3017 0002397 101.4727 258.6670 13.10369369250355
ONEWEB-0044             
1 45150U 20008V   25091.80939479 -.00000596  00000+0 -17433-2 0  9992
2 45150  87.8812 124.2581 0002207  98.5169 261.6209 13.10372691251448
